[{"OBJECT_NAME":"SDA_1675","OBJECT_ID":"2025-230M","EPOCH":"2026-03-09T17:36:17.756640","MEAN_MOTION":13.84748964,"ECCENTRICITY":0.00037161,"INCLINATION":81.2979,"RA_OF_ASC_NODE":303.94,"ARG_OF_PERICENTER":72.4349,"MEAN_ANOMALY":287.7214,"EPHEMERIS_TYPE":0,"CLASSIFICATION_TYPE":"U","NORAD_CAT_ID":65985,"ELEMENT_SET_NO":999,"REV_AT_EPOCH":2004,"BSTAR":0.00019794423,"MEAN_MOTION_DOT":2.35e-6,"MEAN_MOTION_DDOT":0},{"OBJECT_NAME":"FENGYUN 1C DEB","OBJECT_ID":"1999-025UP","EPOCH":"2026-03-09T01:52:38.574336","MEAN_MOTION":13.96499809,"ECCENTRICITY":0.00756743,"INCLINATION":99.0499,"RA_OF_ASC_NODE":122.7096,"ARG_OF_PERICENTER":144.7312,"MEAN_ANOMALY":247.5952,"EPHEMERIS_TYPE":0,"CLASSIFICATION_TYPE":"U","NORAD_CAT_ID":30182,"ELEMENT_SET_NO":999,"REV_AT_EPOCH":97513,"BSTAR":0.00037204548,"MEAN_MOTION_DOT":4.83e-6,"MEAN_MOTION_DDOT":0}]
